{
  "norad_id": 58421,
  "name": "STARLINK-30902",
  "history": [
    {
      "epoch": "2026-03-28T21:28:13.084896",
      "apogee_km": 483.89958873111937,
      "perigee_km": 482.1513645320738,
      "latitude_deg": -24.048530980433725,
      "longitude_deg": 107.98120544012636,
      "semi_major_axis_km": 6861.162476631596,
      "eccentricity": 0.0001274,
      "inclination_deg": 42.9993,
      "raan_deg": 304.0372,
      "arg_perigee_deg": 266.8669,
      "mean_anomaly_deg": 93.2037,
      "mean_motion_rev_day": 15.27587888
    },
    {
      "epoch": "2026-03-28T21:28:13.085760",
      "apogee_km": 483.89945150786934,
      "perigee_km": 482.1515017553229,
      "latitude_deg": -24.04852527668091,
      "longitude_deg": 107.98120640031993,
      "semi_major_axis_km": 6861.162476631596,
      "eccentricity": 0.00012738,
      "inclination_deg": 42.9993,
      "raan_deg": 304.0372,
      "arg_perigee_deg": 266.8669,
      "mean_anomaly_deg": 93.2037,
      "mean_motion_rev_day": 15.27587888
    }
  ]
}